[{"OBJECT_NAME":"STARLINK-34566","OBJECT_ID":"2025-147L","EPOCH":"2026-03-09T21:18:14.324256","MEAN_MOTION":15.30179956,"ECCENTRICITY":0.0001125,"INCLINATION":53.1587,"RA_OF_ASC_NODE":241.7163,"ARG_OF_PERICENTER":68.3537,"MEAN_ANOMALY":291.7584,"EPHEMERIS_TYPE":0,"CLASSIFICATION_TYPE":"U","NORAD_CAT_ID":64765,"ELEMENT_SET_NO":999,"REV_AT_EPOCH":3878,"BSTAR":0.00052945413,"MEAN_MOTION_DOT":0.00015345,"MEAN_MOTION_DDOT":0},{"OBJECT_NAME":"CZ-4C R\/B","OBJECT_ID":"2021-079B","EPOCH":"2026-03-09T14:04:29.438112","MEAN_MOTION":15.08928015,"ECCENTRICITY":0.0108377,"INCLINATION":98.3883,"RA_OF_ASC_NODE":282.6111,"ARG_OF_PERICENTER":26.1585,"MEAN_ANOMALY":334.506,"EPHEMERIS_TYPE":0,"CLASSIFICATION_TYPE":"U","NORAD_CAT_ID":49123,"ELEMENT_SET_NO":999,"REV_AT_EPOCH":24640,"BSTAR":0.00023549,"MEAN_MOTION_DOT":4.178e-5,"MEAN_MOTION_DDOT":0}]
